{
  "type": "FeatureCollection",
  "features": [
    {
      "type": "Feature",
      "properties": {
        "norad_id": 55268,
        "name": "GPS BIII-6  (PRN 28)",
        "group": "gnss",
        "lat": -41.37076815006783,
        "lon": 13.522979951601005,
        "alt_km": 20193.5146610802,
        "timestamp": "2025-12-19T06:59:44.152387+00:00",
        "meta_object_name": "GPS BIII-6  (PRN 28)",
        "meta_object_id": "2023-009A",
        "meta_epoch": "2025-12-17T11:51:56.668896",
        "meta_mean_motion": 2.00555417,
        "meta_eccentricity": 0.00037978,
        "meta_inclination": 55.1064,
        "meta_ra_of_asc_node": 155.6587,
        "meta_arg_of_pericenter": 358.2196,
        "meta_mean_anomaly": 17.9493,
        "meta_ephemeris_type": 0,
        "meta_classification_type": "U",
        "meta_norad_cat_id": 55268,
        "meta_element_set_no": 999,
        "meta_rev_at_epoch": 2160,
        "meta_bstar": 0,
        "meta_mean_motion_dot": 7.7e-07,
        "meta_mean_motion_ddot": 0,
        "tle_line1": "1 55268U 23009A   25351.49440589  .00000077  00000+0  00000+0 0  9991",
        "tle_line2": "2 55268  55.1064 155.6587 0003797 358.2196  17.9493  2.00555417 21607"
      },
      "geometry": {
        "type": "Point",
        "coordinates": [
          13.522979951601005,
          -41.37076815006783
        ]
      }
    },
    {
      "type": "Feature",
      "properties": {
        "norad_id": 56564,
        "name": "BEIDOU-3 G4 (C62)",
        "group": "gnss",
        "lat": 0.621348164799722,
        "lon": -6.880978141033949,
        "alt_km": 35797.52193800366,
        "timestamp": "2025-12-19T06:59:44.152399+00:00",
        "meta_object_name": "BEIDOU-3 G4 (C62)",
        "meta_object_id": "2023-066A",
        "meta_epoch": "2025-12-18T22:37:01.053120",
        "meta_mean_motion": 1.0027165,
        "meta_eccentricity": 0.00027434,
        "meta_inclination": 0.8018,
        "meta_ra_of_asc_node": 302.5246,
        "meta_arg_of_pericenter": 226.6276,
        "meta_mean_anomaly": 57.962,
        "meta_ephemeris_type": 0,
        "meta_classification_type": "U",
        "meta_norad_cat_id": 56564,
        "meta_element_set_no": 999,
        "meta_rev_at_epoch": 958,
        "meta_bstar": 0,
        "meta_mean_motion_dot": -8.5e-07,
        "meta_mean_motion_ddot": 0,
        "tle_line1": "1 56564U 23066A   25352.94237330 -.00000085  00000+0  00000+0 0  9993",
        "tle_line2": "2 56564   0.8018 302.5246 0002743 226.6276  57.9620  1.00271650  9587"
      },
      "geometry": {
        "type": "Point",
        "coordinates": [
          -6.880978141033949,
          0.621348164799722
        ]
      }
    },
    {
      "type": "Feature",
      "properties": {
        "norad_id": 56759,
        "name": "NVS-01 (IRNSS-1J)",
        "group": "gnss",
        "lat": 2.4547344015062604,
        "lon": -37.3343609758676,
        "alt_km": 35763.96023077252,
        "timestamp": "2025-12-19T06:59:44.152411+00:00",
        "meta_object_name": "NVS-01 (IRNSS-1J)",
        "meta_object_id": "2023-076A",
        "meta_epoch": "2025-12-18T22:28:16.890240",
        "meta_mean_motion": 1.00274584,
        "meta_eccentricity": 0.00087582,
        "meta_inclination": 2.6038,
        "meta_ra_of_asc_node": 251.381,
        "meta_arg_of_pericenter": 15.8615,
        "meta_mean_anomaly": 287.1567,
        "meta_ephemeris_type": 0,
        "meta_classification_type": "U",
        "meta_norad_cat_id": 56759,
        "meta_element_set_no": 999,
        "meta_rev_at_epoch": 930,
        "meta_bstar": 0,
        "meta_mean_motion_dot": -3.07e-06,
        "meta_mean_motion_ddot": 0,
        "tle_line1": "1 56759U 23076A   25352.93630660 -.00000307  00000+0  00000+0 0  9999",
        "tle_line2": "2 56759   2.6038 251.3810 0008758  15.8615 287.1567  1.00274584  9306"
      },
      "geometry": {
        "type": "Point",
        "coordinates": [
          -37.3343609758676,
          2.4547344015062604
        ]
      }
    },
    {
      "type": "Feature",
      "properties": {
        "norad_id": 57517,
        "name": "COSMOS 2569 (703K)",
        "group": "gnss",
        "lat": 1.4811213421230516,
        "lon": -101.98063408884602,
        "alt_km": 19138.82205154043,
        "timestamp": "2025-12-19T06:59:44.152446+00:00",
        "meta_object_name": "COSMOS 2569 (703K)",
        "meta_object_id": "2023-114A",
        "meta_epoch": "2025-12-18T02:53:08.312640",
        "meta_mean_motion": 2.13104042,
        "meta_eccentricity": 0.00107503,
        "meta_inclination": 65.1969,
        "meta_ra_of_asc_node": 78.7317,
        "meta_arg_of_pericenter": 286.9993,
        "meta_mean_anomaly": 72.9048,
        "meta_ephemeris_type": 0,
        "meta_classification_type": "U",
        "meta_norad_cat_id": 57517,
        "meta_element_set_no": 999,
        "meta_rev_at_epoch": 1840,
        "meta_bstar": 0,
        "meta_mean_motion_dot": -4.2e-07,
        "meta_mean_motion_ddot": 0,
        "tle_line1": "1 57517U 23114A   25352.12023510 -.00000042  00000+0  00000+0 0  9992",
        "tle_line2": "2 57517  65.1969  78.7317 0010750 286.9993  72.9048  2.13104042 18405"
      },
      "geometry": {
        "type": "Point",
        "coordinates": [
          -101.98063408884602,
          1.4811213421230516
        ]
      }
    },
    {
      "type": "Feature",
      "properties": {
        "norad_id": 58654,
        "name": "BEIDOU-3 M28 (C50)",
        "group": "gnss",
        "lat": -55.31708687658991,
        "lon": -13.0866977439701,
        "alt_km": 21526.701638055438,
        "timestamp": "2025-12-19T06:59:44.152460+00:00",
        "meta_object_name": "BEIDOU-3 M28 (C50)",
        "meta_object_id": "2023-207A",
        "meta_epoch": "2025-12-18T08:16:11.764704",
        "meta_mean_motion": 1.86229821,
        "meta_eccentricity": 0.00026501,
        "meta_inclination": 55.5892,
        "meta_ra_of_asc_node": 68.4116,
        "meta_arg_of_pericenter": 272.4264,
        "meta_mean_anomaly": 87.5728,
        "meta_ephemeris_type": 0,
        "meta_classification_type": "U",
        "meta_norad_cat_id": 58654,
        "meta_element_set_no": 999,
        "meta_rev_at_epoch": 1347,
        "meta_bstar": 0,
        "meta_mean_motion_dot": -6.6e-07,
        "meta_mean_motion_ddot": 0,
        "tle_line1": "1 58654U 23207A   25352.34458061 -.00000066  00000+0  00000+0 0  9991",
        "tle_line2": "2 58654  55.5892  68.4116 0002650 272.4264  87.5728  1.86229821 13471"
      },
      "geometry": {
        "type": "Point",
        "coordinates": [
          -13.0866977439701,
          -55.31708687658991
        ]
      }
    },
    {
      "type": "Feature",
      "properties": {
        "norad_id": 58655,
        "name": "BEIDOU-3 M26 (C48)",
        "group": "gnss",
        "lat": 39.57666147313417,
        "lon": 102.82780267592562,
        "alt_km": 21533.171824164434,
        "timestamp": "2025-12-19T06:59:44.152471+00:00",
        "meta_object_name": "BEIDOU-3 M26 (C48)",
        "meta_object_id": "2023-207B",
        "meta_epoch": "2025-12-17T14:31:30.894816",
        "meta_mean_motion": 1.86231346,
        "meta_eccentricity": 0.0004016,
        "meta_inclination": 55.5906,
        "meta_ra_of_asc_node": 68.4229,
        "meta_arg_of_pericenter": 258.0544,
        "meta_mean_anomaly": 101.9267,
        "meta_ephemeris_type": 0,
        "meta_classification_type": "U",
        "meta_norad_cat_id": 58655,
        "meta_element_set_no": 999,
        "meta_rev_at_epoch": 1344,
        "meta_bstar": 0,
        "meta_mean_motion_dot": -7.2e-07,
        "meta_mean_motion_ddot": 0,
        "tle_line1": "1 58655U 23207B   25351.60521869 -.00000072  00000+0  00000+0 0  9994",
        "tle_line2": "2 58655  55.5906  68.4229 0004016 258.0544 101.9267  1.86231346 13443"
      },
      "geometry": {
        "type": "Point",
        "coordinates": [
          102.82780267592562,
          39.57666147313417
        ]
      }
    },
    {
      "type": "Feature",
      "properties": {
        "norad_id": 59598,
        "name": "GSAT0225 (GALILEO 29)",
        "group": "gnss",
        "lat": -16.970838297689376,
        "lon": 93.77451440099287,
        "alt_km": 23230.29225471284,
        "timestamp": "2025-12-19T06:59:44.152491+00:00",
        "meta_object_name": "GSAT0225 (GALILEO 29)",
        "meta_object_id": "2024-079A",
        "meta_epoch": "2025-12-16T09:22:38.225280",
        "meta_mean_motion": 1.70475011,
        "meta_eccentricity": 0.00021396,
        "meta_inclination": 55.0038,
        "meta_ra_of_asc_node": 106.1932,
        "meta_arg_of_pericenter": 182.0305,
        "meta_mean_anomaly": 176.7742,
        "meta_ephemeris_type": 0,
        "meta_classification_type": "U",
        "meta_norad_cat_id": 59598,
        "meta_element_set_no": 999,
        "meta_rev_at_epoch": 1019,
        "meta_bstar": 0,
        "meta_mean_motion_dot": -1e-07,
        "meta_mean_motion_ddot": 0,
        "tle_line1": "1 59598U 24079A   25350.39072020 -.00000010  00000+0  00000+0 0  9996",
        "tle_line2": "2 59598  55.0038 106.1932 0002139 182.0305 176.7742  1.70475011 10196"
      },
      "geometry": {
        "type": "Point",
        "coordinates": [
          93.77451440099287,
          -16.970838297689376
        ]
      }
    }
  ]
}